ATLAS CENTAUR R/B,1 06155U 72065B   26028.55740968  .00002221  00000+0  30643-3 0  9994,2 06155  34.9997 180.9199 0033427  31.3200 328.9484 14.77561904835328,34.87482150996012,-45.4774454117814,618612.2543444684
SL-8 R/B,1 08459U 75112B   26030.17561390  .00000332  00000+0  11777-3 0  9998,2 08459  74.0602  89.7661 0015829 195.3193 164.7484 14.38183831626334,54.28441980826759,175.41437076739342,781391.4011458005
SL-3 R/B,1 10114U 77057B   26030.11573941  .00016407  00000+0  35694-3 0  9992,2 10114  97.5714 200.3860 0008451  65.9792 294.2339 15.44356305662379,39.00012040931382,89.8009231595999,437424.7523154015
SEASAT 1,1 10967U 78064A   26029.96676241  .00000548  00000+0  19168-3 0  9992,2 10967 108.0165  44.2330 0001365 289.3253  70.7745 14.46125619500913,65.48264127964207,63.007853609250596,749946.7217969375
SL-14 R/B,1 11267U 79011B   26030.01457813  .00001051  00000+0  10134-3 0  9993,2 11267  82.5262 133.2629 0015982 181.4300 178.6877 14.91855750523012,-75.75817332914269,46.67663878631539,617195.7622518975
SL-8 R/B,1 11574U 79089B   26030.11201632  .00000445  00000+0  14246-3 0  9990,2 11574  74.0693 162.4498 0016205 340.4055  19.6477 14.42324514430548,30.826467352363625,-125.5423852597605,747363.5980519619
SL-14 R/B,1 11672U 80005B   26030.13644222  .00001072  00000+0  10609-3 0  9993,2 11672  82.5168 343.7949 0014283 295.0551  64.9184 14.90873938470749,-37.666700100874905,40.60201412252307,600811.9341522984
SL-8 R/B,1 12139U 81003B   26029.90863166  .00030810  00000+0  81794-3 0  9999,2 12139  82.9390 325.8433 0265855 314.2602  43.7076 15.09433577308828,40.85502805023535,-157.88002046822535,726374.7336568559
SL-3 R/B,1 12465U 81046B   26030.09515399  .00016369  00000+0  39456-3 0  9993,2 12465  81.2341 336.0371 0020081 148.5339 211.7109 15.40894632432480,-68.99069620305235,-117.96577620844829,472451.78422802326
SL-3 R/B,1 12904U 81103B   26030.09314156  .00007625  00000+0  34278-3 0  9995,2 12904  81.1578 258.7013 0014145  56.9569 303.3019 15.20907675967361,-54.172270698033024,153.54594276867815,533849.2782166296
SL-3 R/B,1 13068U 82013B   26030.11791595  .00005974  00000+0  26209-3 0  9997,2 13068  81.1722 205.9597 0022020 311.6014  48.3329 15.21581031398488,76.77828962254374,47.358539866818354,527107.4407301616
SL-3 R/B,1 13154U 82039B   26030.08954583  .00003833  00000+0  23290-3 0  9994,2 13154  81.1641 260.4481 0030076  90.7616 269.7056 15.09864530375817,-59.0921665311165,157.88803834754987,577516.8145927365
