CCSDS_OMM_VERS = 2.0
CREATION_DATE  = 
ORIGINATOR     = 

OBJECT_NAME    = ATLAS CENTAUR R/B
OBJECT_ID      = 1972-065B
CENTER_NAME    = EARTH
REF_FRAME      = TEME
TIME_SYSTEM    = UTC
MEAN_ELEMENT_THEORY = SGP/SGP4

EPOCH          = 2026-01-28T13:22:40.196352
MEAN_MOTION    = 14.77561904
ECCENTRICITY   = .00334274
INCLINATION    = 34.9997
RA_OF_ASC_NODE = 180.9199
ARG_OF_PERICENTER = 31.3200
MEAN_ANOMALY   = 328.9484

EPHEMERIS_TYPE = 0
CLASSIFICATION_TYPE = U
NORAD_CAT_ID   = 6155
ELEMENT_SET_NO = 999
REV_AT_EPOCH   = 83532
BSTAR          = .30642968E-3
MEAN_MOTION_DOT = .2221E-4
MEAN_MOTION_DDOT = 0

CCSDS_OMM_VERS = 2.0
CREATION_DATE  = 
ORIGINATOR     = 

OBJECT_NAME    = SL-8 R/B
OBJECT_ID      = 1975-112B
CENTER_NAME    = EARTH
REF_FRAME      = TEME
TIME_SYSTEM    = UTC
MEAN_ELEMENT_THEORY = SGP/SGP4

EPOCH          = 2026-01-30T04:12:53.040960
MEAN_MOTION    = 14.38183831
ECCENTRICITY   = .0015829
INCLINATION    = 74.0602
RA_OF_ASC_NODE = 89.7661
ARG_OF_PERICENTER = 195.3193
MEAN_ANOMALY   = 164.7484

EPHEMERIS_TYPE = 0
CLASSIFICATION_TYPE = U
NORAD_CAT_ID   = 8459
ELEMENT_SET_NO = 999
REV_AT_EPOCH   = 62633
BSTAR          = .11777E-3
MEAN_MOTION_DOT = .332E-5
MEAN_MOTION_DDOT = 0

CCSDS_OMM_VERS = 2.0
CREATION_DATE  = 
ORIGINATOR     = 

OBJECT_NAME    = SL-3 R/B
OBJECT_ID      = 1977-057B
CENTER_NAME    = EARTH
REF_FRAME      = TEME
TIME_SYSTEM    = UTC
MEAN_ELEMENT_THEORY = SGP/SGP4

EPOCH          = 2026-01-30T02:46:39.885024
MEAN_MOTION    = 15.44356305
ECCENTRICITY   = .0008451
INCLINATION    = 97.5714
RA_OF_ASC_NODE = 200.3860
ARG_OF_PERICENTER = 65.9792
MEAN_ANOMALY   = 294.2339

EPHEMERIS_TYPE = 0
CLASSIFICATION_TYPE = U
NORAD_CAT_ID   = 10114
ELEMENT_SET_NO = 999
REV_AT_EPOCH   = 66237
BSTAR          = .35694E-3
MEAN_MOTION_DOT = .16407E-3
MEAN_MOTION_DDOT = 0

CCSDS_OMM_VERS = 2.0
CREATION_DATE  = 
ORIGINATOR     = 

OBJECT_NAME    = SEASAT 1
OBJECT_ID      = 1978-064A
CENTER_NAME    = EARTH
REF_FRAME      = TEME
TIME_SYSTEM    = UTC
MEAN_ELEMENT_THEORY = SGP/SGP4

EPOCH          = 2026-01-29T23:12:08.272224
MEAN_MOTION    = 14.46125619
ECCENTRICITY   = .0001365
INCLINATION    = 108.0165
RA_OF_ASC_NODE = 44.2330
ARG_OF_PERICENTER = 289.3253
MEAN_ANOMALY   = 70.7745

EPHEMERIS_TYPE = 0
CLASSIFICATION_TYPE = U
NORAD_CAT_ID   = 10967
ELEMENT_SET_NO = 999
REV_AT_EPOCH   = 50091
BSTAR          = .19168E-3
MEAN_MOTION_DOT = .548E-5
MEAN_MOTION_DDOT = 0

CCSDS_OMM_VERS = 2.0
CREATION_DATE  = 
ORIGINATOR     = 

OBJECT_NAME    = SL-14 R/B
OBJECT_ID      = 1979-011B
CENTER_NAME    = EARTH
REF_FRAME      = TEME
TIME_SYSTEM    = UTC
MEAN_ELEMENT_THEORY = SGP/SGP4

EPOCH          = 2026-01-30T00:20:59.550432
MEAN_MOTION    = 14.91855750
ECCENTRICITY   = .0015982
INCLINATION    = 82.5262
RA_OF_ASC_NODE = 133.2629
ARG_OF_PERICENTER = 181.4300
MEAN_ANOMALY   = 178.6877

EPHEMERIS_TYPE = 0
CLASSIFICATION_TYPE = U
NORAD_CAT_ID   = 11267
ELEMENT_SET_NO = 999
REV_AT_EPOCH   = 52301
BSTAR          = .10134E-3
MEAN_MOTION_DOT = .1051E-4
MEAN_MOTION_DDOT = 0

CCSDS_OMM_VERS = 2.0
CREATION_DATE  = 
ORIGINATOR     = 

OBJECT_NAME    = SL-8 R/B
OBJECT_ID      = 1979-089B
CENTER_NAME    = EARTH
REF_FRAME      = TEME
TIME_SYSTEM    = UTC
MEAN_ELEMENT_THEORY = SGP/SGP4

EPOCH          = 2026-01-30T02:41:18.210048
MEAN_MOTION    = 14.42324514
ECCENTRICITY   = .0016205
INCLINATION    = 74.0693
RA_OF_ASC_NODE = 162.4498
ARG_OF_PERICENTER = 340.4055
MEAN_ANOMALY   = 19.6477

EPHEMERIS_TYPE = 0
CLASSIFICATION_TYPE = U
NORAD_CAT_ID   = 11574
ELEMENT_SET_NO = 999
REV_AT_EPOCH   = 43054
BSTAR          = .14246E-3
MEAN_MOTION_DOT = .445E-5
MEAN_MOTION_DDOT = 0

CCSDS_OMM_VERS = 2.0
CREATION_DATE  = 
ORIGINATOR     = 

OBJECT_NAME    = SL-14 R/B
OBJECT_ID      = 1980-005B
CENTER_NAME    = EARTH
REF_FRAME      = TEME
TIME_SYSTEM    = UTC
MEAN_ELEMENT_THEORY = SGP/SGP4

EPOCH          = 2026-01-30T03:16:28.607808
MEAN_MOTION    = 14.90873938
ECCENTRICITY   = .0014283
INCLINATION    = 82.5168
RA_OF_ASC_NODE = 343.7949
ARG_OF_PERICENTER = 295.0551
MEAN_ANOMALY   = 64.9184

EPHEMERIS_TYPE = 0
CLASSIFICATION_TYPE = U
NORAD_CAT_ID   = 11672
ELEMENT_SET_NO = 999
REV_AT_EPOCH   = 47074
BSTAR          = .10609E-3
MEAN_MOTION_DOT = .1072E-4
MEAN_MOTION_DDOT = 0

CCSDS_OMM_VERS = 2.0
CREATION_DATE  = 
ORIGINATOR     = 

OBJECT_NAME    = SL-8 R/B
OBJECT_ID      = 1981-003B
CENTER_NAME    = EARTH
REF_FRAME      = TEME
TIME_SYSTEM    = UTC
MEAN_ELEMENT_THEORY = SGP/SGP4

EPOCH          = 2026-01-29T21:48:25.775424
MEAN_MOTION    = 15.09433577
ECCENTRICITY   = .0265855
INCLINATION    = 82.9390
RA_OF_ASC_NODE = 325.8433
ARG_OF_PERICENTER = 314.2602
MEAN_ANOMALY   = 43.7076

EPHEMERIS_TYPE = 0
CLASSIFICATION_TYPE = U
NORAD_CAT_ID   = 12139
ELEMENT_SET_NO = 999
REV_AT_EPOCH   = 30882
BSTAR          = .81794E-3
MEAN_MOTION_DOT = .3081E-3
MEAN_MOTION_DDOT = 0

CCSDS_OMM_VERS = 2.0
CREATION_DATE  = 
ORIGINATOR     = 

OBJECT_NAME    = SL-3 R/B
OBJECT_ID      = 1981-046B
CENTER_NAME    = EARTH
REF_FRAME      = TEME
TIME_SYSTEM    = UTC
MEAN_ELEMENT_THEORY = SGP/SGP4

EPOCH          = 2026-01-30T02:17:01.304736
MEAN_MOTION    = 15.40894632
ECCENTRICITY   = .0020081
INCLINATION    = 81.2341
RA_OF_ASC_NODE = 336.0371
ARG_OF_PERICENTER = 148.5339
MEAN_ANOMALY   = 211.7109

EPHEMERIS_TYPE = 0
CLASSIFICATION_TYPE = U
NORAD_CAT_ID   = 12465
ELEMENT_SET_NO = 999
REV_AT_EPOCH   = 43248
BSTAR          = .39456E-3
MEAN_MOTION_DOT = .16369E-3
MEAN_MOTION_DDOT = 0

CCSDS_OMM_VERS = 2.0
CREATION_DATE  = 
ORIGINATOR     = 

OBJECT_NAME    = SL-3 R/B
OBJECT_ID      = 1981-103B
CENTER_NAME    = EARTH
REF_FRAME      = TEME
TIME_SYSTEM    = UTC
MEAN_ELEMENT_THEORY = SGP/SGP4

EPOCH          = 2026-01-30T02:14:07.430784
MEAN_MOTION    = 15.20907675
ECCENTRICITY   = .0014145
INCLINATION    = 81.1578
RA_OF_ASC_NODE = 258.7013
ARG_OF_PERICENTER = 56.9569
MEAN_ANOMALY   = 303.3019

EPHEMERIS_TYPE = 0
CLASSIFICATION_TYPE = U
NORAD_CAT_ID   = 12904
ELEMENT_SET_NO = 999
REV_AT_EPOCH   = 96736
BSTAR          = .34278E-3
MEAN_MOTION_DOT = .7625E-4
MEAN_MOTION_DDOT = 0

CCSDS_OMM_VERS = 2.0
CREATION_DATE  = 
ORIGINATOR     = 

OBJECT_NAME    = SL-3 R/B
OBJECT_ID      = 1982-013B
CENTER_NAME    = EARTH
REF_FRAME      = TEME
TIME_SYSTEM    = UTC
MEAN_ELEMENT_THEORY = SGP/SGP4

EPOCH          = 2026-01-30T02:49:47.938080
MEAN_MOTION    = 15.21581031
ECCENTRICITY   = .002202
INCLINATION    = 81.1722
RA_OF_ASC_NODE = 205.9597
ARG_OF_PERICENTER = 311.6014
MEAN_ANOMALY   = 48.3329

EPHEMERIS_TYPE = 0
CLASSIFICATION_TYPE = U
NORAD_CAT_ID   = 13068
ELEMENT_SET_NO = 999
REV_AT_EPOCH   = 39848
BSTAR          = .26209E-3
MEAN_MOTION_DOT = .5974E-4
MEAN_MOTION_DDOT = 0

CCSDS_OMM_VERS = 2.0
CREATION_DATE  = 
ORIGINATOR     = 

OBJECT_NAME    = SL-3 R/B
OBJECT_ID      = 1982-039B
CENTER_NAME    = EARTH
REF_FRAME      = TEME
TIME_SYSTEM    = UTC
MEAN_ELEMENT_THEORY = SGP/SGP4

EPOCH          = 2026-01-30T02:08:56.759712
MEAN_MOTION    = 15.09864530
ECCENTRICITY   = .0030076
INCLINATION    = 81.1641
RA_OF_ASC_NODE = 260.4481
ARG_OF_PERICENTER = 90.7616
MEAN_ANOMALY   = 269.7056

EPHEMERIS_TYPE = 0
CLASSIFICATION_TYPE = U
NORAD_CAT_ID   = 13154
ELEMENT_SET_NO = 999
REV_AT_EPOCH   = 37581
BSTAR          = .2329E-3
MEAN_MOTION_DOT = .3833E-4
MEAN_MOTION_DDOT = 0

